STARLINK-37745          
1 69232U 26115X   26155.25004630 -.02387150  00000+0 -13072-1 0  9997
2 69232  97.2824 172.0318 0001401 111.4181 312.2232 15.82888002  2617
STARLINK-37739          
1 69233U 26115Y   26155.25004630 -.00026509  00000+0 -13796-3 0  9999
2 69233  97.2829 172.0204 0000680 100.1464 297.3077 15.80835772  2618
STARLINK-37755          
1 69234U 26115Z   26155.25004630 -.01423616  00000+0 -79314-2 0  9998
2 69234  97.2823 172.0260 0001167  91.9593 318.4322 15.81949448  2611
TJS-24                  
1 69235U 26116A   26146.91903053  .00005573 -37133-6  21296-3 0  9997
2 69235  19.5460 149.2488 7312999 179.4286 182.6145  2.27837712    23
STARLINK-37665          
1 69238U 26117A   26155.25004630 -.02101704  13086-2 -39490-2 0  9998
2 69238  53.1586 308.8548 0000498  72.6647 252.9822 16.00372184  2090
STARLINK-37558          
1 69239U 26117B   26155.25004630 -.02065343  12690-2 -38327-2 0  9995
2 69239  53.1585 308.8470 0000467  65.5477 263.8616 16.00585011  2099
STARLINK-37680          
1 69240U 26117C   26155.25004630 -.02127784  13486-2 -38737-2 0  9994
2 69240  53.1586 308.8387 0000397  72.6751 260.6811 16.00922046  2089
STARLINK-37742          
1 69241U 26117D   26155.25004630 -.02106712  13275-2 -37747-2 0  9999
2 69241  53.1586 308.8323 0000339  76.1154 260.2626 16.01194735  2090
STARLINK-37718          
1 69242U 26117E   26155.25004630 -.02028187  12366-2 -36059-2 0  9994
2 69242  53.1586 308.8258 0000305  69.1437 270.3271 16.01321508  2084
STARLINK-37735          
1 69243U 26117F   26155.25004630 -.02082795  13030-2 -36747-2 0  9993
2 69243  53.1584 308.8184 0000284  73.6974 269.3489 16.01457989  2096
STARLINK-37757          
1 69244U 26117G   26155.25004630 -.02114857  13502-2 -36200-2 0  9997
2 69244  53.1585 308.8088 0000392  72.2208 275.3691 16.01978294  2095
STARLINK-37767          
1 69245U 26117H   26155.25004630 -.02070371  13095-2 -33744-2 0  9997
2 69245  53.1581 308.7898 0000345  68.1436 288.7637 16.02804571  2090
STARLINK-35759          
1 69246U 26117J   26155.25004630 -.02107907  13578-2 -34073-2 0  9996
2 69246  53.1582 308.7834 0000409  74.6478 285.2422 16.02946613  2145
STARLINK-37238          
1 69247U 26117K   26155.25004630 -.02006873  12463-2 -31136-2 0  9996
2 69247  53.1583 308.7703 0000463  69.2495 296.8030 16.03624745  2098
STARLINK-37412          
1 69248U 26117L   26155.25004630 -.01932741  11685-2 -28955-2 0  9998
2 69248  53.1583 308.7576 0000423  66.8410 305.4312 16.04198459  2160
STARLINK-37398          
1 69249U 26117M   26155.25004630 -.01938378  11761-2 -28908-2 0  9994
2 69249  53.1581 308.7514 0000330  64.0575 311.0469 16.04273815  2166
STARLINK-37499          
1 69250U 26117N   26155.25004630 -.01911432  11470-2 -28290-2 0  9999
2 69250  53.1582 308.7447 0000452  66.4196 311.9982 16.04396377  2162
STARLINK-37489          
1 69251U 26117P   26155.25004630 -.01960753  12117-2 -28128-2 0  9999
2 69251  53.1584 308.7347 0000435  65.9077 317.1791 16.04914567  2160
STARLINK-37434          
1 69252U 26117Q   26155.25004630 -.01923214  11732-2 -26990-2 0  9998
2 69252  53.1582 308.7264 0000368  58.4129 328.5973 16.05269835  2099
STARLINK-37368          
1 69253U 26117R   26155.25004630 -.01824039  10740-2 -24125-2 0  9990
2 69253  53.1582 308.7074 0000340  96.6428 299.5950 16.06218665  2161
STARLINK-37517          
1 69254U 26117S   26155.30547646 -.00647687  16449-3 -82235-3 0  9997
2 69254  53.1586 308.4138 0003788 337.3451  22.7415 16.06655676   936
STARLINK-37378          
1 69255U 26117T   26155.25004630 -.01543188  78827-3 -20089-2 0  9991
2 69255  53.1583 308.6936 0000562  47.6633 355.2648 16.06437412  2088
STARLINK-37396          
1 69256U 26117U   26155.25004630 -.01928892  12060-2 -24341-2 0  9992
2 69256  53.1582 308.6822 0000366   7.4298  40.7742 16.06980645  2166
STARLINK-37508          
1 69257U 26117V   26155.25004630 -.01884447  11579-2 -23346-2 0  9998
2 69257  53.1582 308.6736 0000359  18.0461  34.2138 16.07268937  2085
STARLINK-37276          
1 69258U 26117W   26155.25004630 -.01692002  95101-3 -20287-2 0  9998
2 69258  53.1582 308.6609 0000014 160.4562 257.6991 16.07763919  2085
STARLINK-37518          
1 69259U 26117X   26155.25004630 -.01607278  86872-3 -18745-2 0  9991
2 69259  53.1581 308.6534 0000165 112.3347 309.8502 16.08187360  2096
STARLINK-37478          
1 69260U 26117Y   26155.25004630 -.01631333  89600-3 -18721-2 0  9998
2 69260  53.1582 308.6448 0000121 299.3564 126.9420 16.08442142  2091
STARLINK-37506          
1 69261U 26117Z   26155.25004630 -.01649286  91659-3 -18715-2 0  9995
2 69261  53.1580 308.6381 0000126  64.6898   4.8505 16.08620136  2093
