OBJECT_NAME,OBJECT_ID,EPOCH,MEAN_MOTION,ECCENTRICITY,INCLINATION,RA_OF_ASC_NODE,ARG_OF_PERICENTER,MEAN_ANOMALY,EPHEMERIS_TYPE,CLASSIFICATION_TYPE,NORAD_CAT_ID,ELEMENT_SET_NO,REV_AT_EPOCH,BSTAR,MEAN_MOTION_DOT,MEAN_MOTION_DDOT
STARLINK-37745,2026-115X,2026-06-04T06:00:04.000320,15.82888002,.0001401,97.2824,172.0318,111.4181,312.2232,0,U,69232,999,261,-.13072405E-1,-.238715E-1,0
STARLINK-37739,2026-115Y,2026-06-04T06:00:04.000320,15.80835772,.00006804,97.2829,172.0204,100.1464,297.3077,0,U,69233,999,261,-.13795861E-3,-.26509E-3,0
STARLINK-37755,2026-115Z,2026-06-04T06:00:04.000320,15.81949448,.00011677,97.2823,172.0260,91.9593,318.4322,0,U,69234,999,261,-.79313926E-2,-.1423616E-1,0
TJS-24,2026-116A,2026-05-26T22:03:24.237792,2.27837712,.7312999,19.5460,149.2488,179.4286,182.6145,0,U,69235,999,2,.21296435E-3,.5573E-4,-.371334E-6
STARLINK-37665,2026-117A,2026-06-04T06:00:04.000320,16.00372184,.00004987,53.1586,308.8548,72.6647,252.9822,0,U,69238,999,209,-.39489746E-2,-.2101704E-1,.13085974E-2
STARLINK-37558,2026-117B,2026-06-04T06:00:04.000320,16.00585011,.00004672,53.1585,308.8470,65.5477,263.8616,0,U,69239,999,209,-.38326755E-2,-.2065343E-1,.1268958E-2
STARLINK-37680,2026-117C,2026-06-04T06:00:04.000320,16.00922046,.00003976,53.1586,308.8387,72.6751,260.6811,0,U,69240,999,208,-.38736734E-2,-.2127784E-1,.13486424E-2
STARLINK-37742,2026-117D,2026-06-04T06:00:04.000320,16.01194735,.00003391,53.1586,308.8323,76.1154,260.2626,0,U,69241,999,209,-.37747485E-2,-.2106712E-1,.13275237E-2
STARLINK-37718,2026-117E,2026-06-04T06:00:04.000320,16.01321508,.00003053,53.1586,308.8258,69.1437,270.3271,0,U,69242,999,208,-.36058598E-2,-.2028187E-1,.12366187E-2
STARLINK-37735,2026-117F,2026-06-04T06:00:04.000320,16.01457989,.00002842,53.1584,308.8184,73.6974,269.3489,0,U,69243,999,209,-.36747122E-2,-.2082795E-1,.13029713E-2
STARLINK-37757,2026-117G,2026-06-04T06:00:04.000320,16.01978294,.0000392,53.1585,308.8088,72.2208,275.3691,0,U,69244,999,209,-.3619963E-2,-.2114857E-1,.13501504E-2
STARLINK-37767,2026-117H,2026-06-04T06:00:04.000320,16.02804571,.00003457,53.1581,308.7898,68.1436,288.7637,0,U,69245,999,209,-.33743742E-2,-.2070371E-1,.13094504E-2
STARLINK-35759,2026-117J,2026-06-04T06:00:04.000320,16.02946613,.00004094,53.1582,308.7834,74.6478,285.2422,0,U,69246,999,214,-.34072814E-2,-.2107907E-1,.13577775E-2
STARLINK-37238,2026-117K,2026-06-04T06:00:04.000320,16.03624745,.00004631,53.1583,308.7703,69.2495,296.8030,0,U,69247,999,209,-.31135691E-2,-.2006873E-1,.12463367E-2
STARLINK-37412,2026-117L,2026-06-04T06:00:04.000320,16.04198459,.00004232,53.1583,308.7576,66.8410,305.4312,0,U,69248,999,216,-.28954555E-2,-.1932741E-1,.11684869E-2
STARLINK-37398,2026-117M,2026-06-04T06:00:04.000320,16.04273815,.00003307,53.1581,308.7514,64.0575,311.0469,0,U,69249,999,216,-.28908003E-2,-.1938378E-1,.11760578E-2
STARLINK-37499,2026-117N,2026-06-04T06:00:04.000320,16.04396377,.00004527,53.1582,308.7447,66.4196,311.9982,0,U,69250,999,216,-.28290394E-2,-.1911432E-1,.11469871E-2
STARLINK-37489,2026-117P,2026-06-04T06:00:04.000320,16.04914567,.00004353,53.1584,308.7347,65.9077,317.1791,0,U,69251,999,216,-.28127803E-2,-.1960753E-1,.12116738E-2
STARLINK-37434,2026-117Q,2026-06-04T06:00:04.000320,16.05269835,.00003689,53.1582,308.7264,58.4129,328.5973,0,U,69252,999,209,-.26989767E-2,-.1923214E-1,.11731578E-2
STARLINK-37368,2026-117R,2026-06-04T06:00:04.000320,16.06218665,.00003409,53.1582,308.7074,96.6428,299.5950,0,U,69253,999,216,-.24125172E-2,-.1824039E-1,.10740224E-2
STARLINK-37517,2026-117S,2026-06-04T07:19:53.166144,16.06655676,.00037882,53.1586,308.4138,337.3451,22.7415,0,U,69254,999,93,-.82235078E-3,-.647687E-2,.16448898E-3
STARLINK-37378,2026-117T,2026-06-04T06:00:04.000320,16.06437412,.00005624,53.1583,308.6936,47.6633,355.2648,0,U,69255,999,208,-.20088902E-2,-.1543188E-1,.78826566E-3
STARLINK-37396,2026-117U,2026-06-04T06:00:04.000320,16.06980645,.00003667,53.1582,308.6822,7.4298,40.7742,0,U,69256,999,216,-.24340719E-2,-.1928892E-1,.12059621E-2
STARLINK-37508,2026-117V,2026-06-04T06:00:04.000320,16.07268937,.00003593,53.1582,308.6736,18.0461,34.2138,0,U,69257,999,208,-.23345697E-2,-.1884447E-1,.11579036E-2
STARLINK-37276,2026-117W,2026-06-04T06:00:04.000320,16.07763919,.00000149,53.1582,308.6609,160.4562,257.6991,0,U,69258,999,208,-.20287285E-2,-.1692002E-1,.95101105E-3
STARLINK-37518,2026-117X,2026-06-04T06:00:04.000320,16.08187360,.00001656,53.1581,308.6534,112.3347,309.8502,0,U,69259,999,209,-.18744966E-2,-.1607278E-1,.86872276E-3
STARLINK-37478,2026-117Y,2026-06-04T06:00:04.000320,16.08442142,.00001212,53.1582,308.6448,299.3564,126.9420,0,U,69260,999,209,-.18721254E-2,-.1631333E-1,.89600168E-3
STARLINK-37506,2026-117Z,2026-06-04T06:00:04.000320,16.08620136,.00001268,53.1580,308.6381,64.6898,4.8505,0,U,69261,999,209,-.18714716E-2,-.1649286E-1,.91658567E-3
